TOMORROW-S4             
1 62386U 24247K   26068.53305366  .00012677  00000+0  46927-3 0  9990
2 62386  44.9818 117.9996 0004434 210.4078 149.6548 15.27717249 67702
STARLINK-36075          
1 66905U 25283AD  26068.26290423  .00009507  00000+0  33325-3 0  9995
2 66905  53.1623  26.5141 0001156 128.6218 231.4886 15.30145175 15772
